{"type": "FeatureCollection", "features": [{"type": "Feature", "properties": {"norad_id": 66516, "name": "STARLINK-35924", "group": "last-30-days", "lat": -41.22606551499618, "lon": -95.91879065026761, "alt_km": 445.90579211304976, "timestamp": "2025-12-19T16:54:42.965039+00:00", "meta": {"OBJECT_NAME": "STARLINK-35924", "OBJECT_ID": "2025-265A", "EPOCH": "2025-12-18T11:48:18.362016", "MEAN_MOTION": 15.40727842, "ECCENTRICITY": 0.000164, "INCLINATION": 43.0019, "RA_OF_ASC_NODE": 20.978, "ARG_OF_PERICENTER": 266.3372, "MEAN_ANOMALY": 93.7297, "EPHEMERIS_TYPE": 0, "CLASSIFICATION_TYPE": "U", "NORAD_CAT_ID": 66516, "ELEMENT_SET_NO": 999, "REV_AT_EPOCH": 464, "BSTAR": 0.001029515, "MEAN_MOTION_DOT": 0.00042984, "MEAN_MOTION_DDOT": 0}, "tle": {"line1": "1 66516U 25265A   25352.49187919  .00042984  00000+0  10295-2 0  9994", "line2": "2 66516  43.0019  20.9780 0001640 266.3372  93.7297 15.40727842  4640"}}, "geometry": {"type": "Point", "coordinates": [-95.91879065026761, -41.22606551499618]}}, {"type": "Feature", "properties": {"norad_id": 66517, "name": "STARLINK-35937", "group": "last-30-days", "lat": 42.37350625816179, "lon": 91.77325655800155, "alt_km": 438.1433926394857, "timestamp": "2025-12-19T16:54:42.965098+00:00", "meta": {"OBJECT_NAME": "STARLINK-35937", "OBJECT_ID": "2025-265B", "EPOCH": "2025-12-19T08:00:01.999872", "MEAN_MOTION": 15.40687643, "ECCENTRICITY": 0.00014169, "INCLINATION": 42.9999, "RA_OF_ASC_NODE": 15.6774, "ARG_OF_PERICENTER": 288.9305, "MEAN_ANOMALY": 250.5063, "EPHEMERIS_TYPE": 0, "CLASSIFICATION_TYPE": "U", "NORAD_CAT_ID": 66517, "ELEMENT_SET_NO": 999, "REV_AT_EPOCH": 605, "BSTAR": 0.00043801043, "MEAN_MOTION_DOT": 0.00018029, "MEAN_MOTION_DDOT": 0}, "tle": {"line1": "1 66517U 25265B   25353.33335648  .00018029  00000+0  43801-3 0  9996", "line2": "2 66517  42.9999  15.6774 0001416 288.9305 250.5063 15.40687643  6052"}}, "geometry": {"type": "Point", "coordinates": [91.77325655800155, 42.37350625816179]}}, {"type": "Feature", "properties": {"norad_id": 66518, "name": "STARLINK-35962", "group": "last-30-days", "lat": -3.9563193022848195, "lon": 9.492193261000066, "alt_km": 444.2487775151394, "timestamp": "2025-12-19T16:54:42.965115+00:00", "meta": {"OBJECT_NAME": "STARLINK-35962", "OBJECT_ID": "2025-265C", "EPOCH": "2025-12-19T08:00:01.999872", "MEAN_MOTION": 15.40686739, "ECCENTRICITY": 0.00012533, "INCLINATION": 43.0005, "RA_OF_ASC_NODE": 15.8886, "ARG_OF_PERICENTER": 266.7454, "MEAN_ANOMALY": 185.6163, "EPHEMERIS_TYPE": 0, "CLASSIFICATION_TYPE": "U", "NORAD_CAT_ID": 66518, "ELEMENT_SET_NO": 999, "REV_AT_EPOCH": 605, "BSTAR": 0.00036109289, "MEAN_MOTION_DOT": 0.00014803, "MEAN_MOTION_DDOT": 0}, "tle": {"line1": "1 66518U 25265C   25353.33335648  .00014803  00000+0  36109-3 0  9996", "line2": "2 66518  43.0005  15.8886 0001253 266.7454 185.6163 15.40686739  6051"}}, "geometry": {"type": "Point", "coordinates": [9.492193261000066, -3.9563193022848195]}}, {"type": "Feature", "properties": {"norad_id": 66519, "name": "STARLINK-35931", "group": "last-30-days", "lat": -6.370704084847077, "lon": -159.85143696829, "alt_km": 415.0674906989625, "timestamp": "2025-12-19T16:54:42.965129+00:00", "meta": {"OBJECT_NAME": "STARLINK-35931", "OBJECT_ID": "2025-265D", "EPOCH": "2025-12-17T11:32:34.790208", "MEAN_MOTION": 15.5058288, "ECCENTRICITY": 0.00018413, "INCLINATION": 42.9979, "RA_OF_ASC_NODE": 26.2806, "ARG_OF_PERICENTER": 290.0106, "MEAN_ANOMALY": 70.0556, "EPHEMERIS_TYPE": 0, "CLASSIFICATION_TYPE": "U", "NORAD_CAT_ID": 66519, "ELEMENT_SET_NO": 999, "REV_AT_EPOCH": 449, "BSTAR": 0.0013422359, "MEAN_MOTION_DOT": 0.00079214, "MEAN_MOTION_DDOT": 0}, "tle": {"line1": "1 66519U 25265D   25351.48095822  .00079214  00000+0  13422-2 0  9997", "line2": "2 66519  42.9979  26.2806 0001841 290.0106  70.0556 15.50582880  4497"}}, "geometry": {"type": "Point", "coordinates": [-159.85143696829, -6.370704084847077]}}, {"type": "Feature", "properties": {"norad_id": 66520, "name": "STARLINK-35952", "group": "last-30-days", "lat": -34.1171331028011, "lon": -32.78189824981939, "alt_km": 447.0103379720731, "timestamp": "2025-12-19T16:54:42.965142+00:00", "meta": {"OBJECT_NAME": "STARLINK-35952", "OBJECT_ID": "2025-265E", "EPOCH": "2025-12-19T03:08:55.994496", "MEAN_MOTION": 15.40737918, "ECCENTRICITY": 0.00011586, "INCLINATION": 42.997, "RA_OF_ASC_NODE": 17.1684, "ARG_OF_PERICENTER": 196.1287, "MEAN_ANOMALY": 163.9533, "EPHEMERIS_TYPE": 0, "CLASSIFICATION_TYPE": "U", "NORAD_CAT_ID": 66520, "ELEMENT_SET_NO": 999, "REV_AT_EPOCH": 474, "BSTAR": 0.00051124212, "MEAN_MOTION_DOT": 0.00021138, "MEAN_MOTION_DDOT": 0}, "tle": {"line1": "1 66520U 25265E   25353.13120364  .00021138  00000+0  51124-3 0  9997", "line2": "2 66520  42.9970  17.1684 0001158 196.1287 163.9533 15.40737918  4748"}}, "geometry": {"type": "Point", "coordinates": [-32.78189824981939, -34.1171331028011]}}, {"type": "Feature", "properties": {"norad_id": 66521, "name": "STARLINK-35915", "group": "last-30-days", "lat": 20.88512816908065, "lon": 37.82810280596273, "alt_km": 441.3195614649858, "timestamp": "2025-12-19T16:54:42.965154+00:00", "meta": {"OBJECT_NAME": "STARLINK-35915", "OBJECT_ID": "2025-265F", "EPOCH": "2025-12-19T08:00:01.999872", "MEAN_MOTION": 15.40682033, "ECCENTRICITY": 0.00010812, "INCLINATION": 43.0005, "RA_OF_ASC_NODE": 15.7972, "ARG_OF_PERICENTER": 249.2835, "MEAN_ANOMALY": 240.411, "EPHEMERIS_TYPE": 0, "CLASSIFICATION_TYPE": "U", "NORAD_CAT_ID": 66521, "ELEMENT_SET_NO": 999, "REV_AT_EPOCH": 605, "BSTAR": 0.00039563396, "MEAN_MOTION_DOT": 0.00016248, "MEAN_MOTION_DDOT": 0}, "tle": {"line1": "1 66521U 25265F   25353.33335648  .00016248  00000+0  39563-3 0  9992", "line2": "2 66521  43.0005  15.7972 0001081 249.2835 240.4110 15.40682033  6053"}}, "geometry": {"type": "Point", "coordinates": [37.82810280596273, 20.88512816908065]}}, {"type": "Feature", "properties": {"norad_id": 66522, "name": "STARLINK-35946", "group": "last-30-days", "lat": 36.71669324945624, "lon": 140.27871803008603, "alt_km": 439.1319604295477, "timestamp": "2025-12-19T16:54:42.965166+00:00", "meta": {"OBJECT_NAME": "STARLINK-35946", "OBJECT_ID": "2025-265G", "EPOCH": "2025-12-19T08:00:01.999872", "MEAN_MOTION": 15.40681925, "ECCENTRICITY": 0.00013889, "INCLINATION": 42.9997, "RA_OF_ASC_NODE": 15.5854, "ARG_OF_PERICENTER": 284.193, "MEAN_ANOMALY": 292.5971, "EPHEMERIS_TYPE": 0, "CLASSIFICATION_TYPE": "U", "NORAD_CAT_ID": 66522, "ELEMENT_SET_NO": 999, "REV_AT_EPOCH": 605, "BSTAR": 0.00042509048, "MEAN_MOTION_DOT": 0.00017483, "MEAN_MOTION_DDOT": 0}, "tle": {"line1": "1 66522U 25265G   25353.33335648  .00017483  00000+0  42509-3 0  9999", "line2": "2 66522  42.9997  15.5854 0001388 284.1930 292.5971 15.40681925  6055"}}, "geometry": {"type": "Point", "coordinates": [140.27871803008603, 36.71669324945624]}}, {"type": "Feature", "properties": {"norad_id": 66523, "name": "STARLINK-35969", "group": "last-30-days", "lat": -11.0759094162778, "lon": -154.6209416287075, "alt_km": 415.8567241451083, "timestamp": "2025-12-19T16:54:42.965178+00:00", "meta": {"OBJECT_NAME": "STARLINK-35969", "OBJECT_ID": "2025-265H", "EPOCH": "2025-12-18T09:09:12.138336", "MEAN_MOTION": 15.50611423, "ECCENTRICITY": 0.00033344, "INCLINATION": 43.0034, "RA_OF_ASC_NODE": 20.9974, "ARG_OF_PERICENTER": 293.546, "MEAN_ANOMALY": 66.505, "EPHEMERIS_TYPE": 0, "CLASSIFICATION_TYPE": "U", "NORAD_CAT_ID": 66523, "ELEMENT_SET_NO": 999, "REV_AT_EPOCH": 463, "BSTAR": 0.0017102278, "MEAN_MOTION_DOT": 0.00101428, "MEAN_MOTION_DDOT": 0}, "tle": {"line1": "1 66523U 25265H   25352.38139049  .00101428  00000+0  17102-2 0  9994", "line2": "2 66523  43.0034  20.9974 0003334 293.5460  66.5050 15.50611423  4634"}}, "geometry": {"type": "Point", "coordinates": [-154.6209416287075, -11.0759094162778]}}, {"type": "Feature", "properties": {"norad_id": 66524, "name": "STARLINK-35687", "group": "last-30-days", "lat": -42.182458155760365, "lon": -62.57396319758229, "alt_km": 446.11115259630515, "timestamp": "2025-12-19T16:54:42.965189+00:00", "meta": {"OBJECT_NAME": "STARLINK-35687", "OBJECT_ID": "2025-265J", "EPOCH": "2025-12-18T10:08:29.779296", "MEAN_MOTION": 15.40707286, "ECCENTRICITY": 0.00013869, "INCLINATION": 43.0026, "RA_OF_ASC_NODE": 21.3158, "ARG_OF_PERICENTER": 269.7138, "MEAN_ANOMALY": 90.356, "EPHEMERIS_TYPE": 0, "CLASSIFICATION_TYPE": "U", "NORAD_CAT_ID": 66524, "ELEMENT_SET_NO": 999, "REV_AT_EPOCH": 463, "BSTAR": 0.00099694918, "MEAN_MOTION_DOT": 0.00041578, "MEAN_MOTION_DDOT": 0}, "tle": {"line1": "1 66524U 25265J   25352.42256689  .00041578  00000+0  99695-3 0  9997", "line2": "2 66524  43.0026  21.3158 0001386 269.7138  90.3560 15.40707286  4630"}}, "geometry": {"type": "Point", "coordinates": [-62.57396319758229, -42.182458155760365]}}, {"type": "Feature", "properties": {"norad_id": 66525, "name": "STARLINK-35975", "group": "last-30-days", "lat": -20.253189520672525, "lon": -9.530384745885634, "alt_km": 446.7812467797039, "timestamp": "2025-12-19T16:54:42.965200+00:00", "meta": {"OBJECT_NAME": "STARLINK-35975", "OBJECT_ID": "2025-265K", "EPOCH": "2025-12-19T03:02:29.122080", "MEAN_MOTION": 15.40730714, "ECCENTRICITY": 0.00016909, "INCLINATION": 42.9957, "RA_OF_ASC_NODE": 17.1313, "ARG_OF_PERICENTER": 177.4314, "MEAN_ANOMALY": 182.6552, "EPHEMERIS_TYPE": 0, "CLASSIFICATION_TYPE": "U", "NORAD_CAT_ID": 66525, "ELEMENT_SET_NO": 999, "REV_AT_EPOCH": 474, "BSTAR": 0.00084302185, "MEAN_MOTION_DOT": 0.0003511, "MEAN_MOTION_DDOT": 0}, "tle": {"line1": "1 66525U 25265K   25353.12672595  .00035110  00000+0  84302-3 0  9998", "line2": "2 66525  42.9957  17.1313 0001690 177.4314 182.6552 15.40730714  4747"}}, "geometry": {"type": "Point", "coordinates": [-9.530384745885634, -20.253189520672525]}}]}